{
  "type": "FeatureCollection",
  "features": [
    {
      "type": "Feature",
      "properties": {
        "norad_id": 33860,
        "name": "IRIDIUM 33 DEB",
        "group": "iridium-33-debris",
        "lat": 16.57662281083123,
        "lon": 23.798235823057134,
        "alt_km": 667.483713874778,
        "timestamp": "2025-12-22T22:44:21.363321+00:00",
        "meta_object_name": "IRIDIUM 33 DEB",
        "meta_object_id": "1997-051AD",
        "meta_epoch": "2025-12-22T09:52:40.181952",
        "meta_mean_motion": 14.67476577,
        "meta_eccentricity": 0.00062656,
        "meta_inclination": 86.382,
        "meta_ra_of_asc_node": 22.9563,
        "meta_arg_of_pericenter": 320.5028,
        "meta_mean_anomaly": 106.9183,
        "meta_ephemeris_type": 0,
        "meta_classification_type": "U",
        "meta_norad_cat_id": 33860,
        "meta_element_set_no": 999,
        "meta_rev_at_epoch": 88864,
        "meta_bstar": 0.0011851426,
        "meta_mean_motion_dot": 6.735e-05,
        "meta_mean_motion_ddot": 0,
        "tle_line1": "1 33860U 97051AD  25356.41157618  .00006735  00000+0  11851-2 0  9994",
        "tle_line2": "2 33860  86.3820  22.9563 0006265 320.5028 106.9183 14.67476577888641"
      },
      "geometry": {
        "type": "Point",
        "coordinates": [
          23.798235823057134,
          16.57662281083123
        ]
      }
    },
    {
      "type": "Feature",
      "properties": {
        "norad_id": 33862,
        "name": "IRIDIUM 33 DEB",
        "group": "iridium-33-debris",
        "lat": 49.23049909066539,
        "lon": -151.14982221160096,
        "alt_km": 661.3877164810883,
        "timestamp": "2025-12-22T22:44:21.363333+00:00",
        "meta_object_name": "IRIDIUM 33 DEB",
        "meta_object_id": "1997-051AF",
        "meta_epoch": "2025-12-22T12:52:54.283296",
        "meta_mean_motion": 14.69620886,
        "meta_eccentricity": 0.00524276,
        "meta_inclination": 86.4077,
        "meta_ra_of_asc_node": 33.2095,
        "meta_arg_of_pericenter": 36.2617,
        "meta_mean_anomaly": 82.096,
        "meta_ephemeris_type": 0,
        "meta_classification_type": "U",
        "meta_norad_cat_id": 33862,
        "meta_element_set_no": 999,
        "meta_rev_at_epoch": 88967,
        "meta_bstar": 0.0015539154,
        "meta_mean_motion_dot": 9.461e-05,
        "meta_mean_motion_ddot": 0,
        "tle_line1": "1 33862U 97051AF  25356.53673939  .00009461  00000+0  15539-2 0  9994",
        "tle_line2": "2 33862  86.4077  33.2095 0052427  36.2617  82.0960 14.69620886889676"
      },
      "geometry": {
        "type": "Point",
        "coordinates": [
          -151.14982221160096,
          49.23049909066539
        ]
      }
    },
    {
      "type": "Feature",
      "properties": {
        "norad_id": 33866,
        "name": "IRIDIUM 33 DEB",
        "group": "iridium-33-debris",
        "lat": 9.76317089904423,
        "lon": 89.35531741636484,
        "alt_km": 848.6501277244197,
        "timestamp": "2025-12-22T22:44:21.363344+00:00",
        "meta_object_name": "IRIDIUM 33 DEB",
        "meta_object_id": "1997-051AK",
        "meta_epoch": "2025-12-22T05:58:49.941696",
        "meta_mean_motion": 14.25302348,
        "meta_eccentricity": 0.01150469,
        "meta_inclination": 86.3001,
        "meta_ra_of_asc_node": 89.0128,
        "meta_arg_of_pericenter": 131.2544,
        "meta_mean_anomaly": 259.1044,
        "meta_ephemeris_type": 0,
        "meta_classification_type": "U",
        "meta_norad_cat_id": 33866,
        "meta_element_set_no": 999,
        "meta_rev_at_epoch": 86946,
        "meta_bstar": 0.00050535562,
        "meta_mean_motion_dot": 1.294e-05,
        "meta_mean_motion_ddot": 0,
        "tle_line1": "1 33866U 97051AK  25356.24918914  .00001294  00000+0  50536-3 0  9994",
        "tle_line2": "2 33866  86.3001  89.0128 0115046 131.2544 259.1044 14.25302348869461"
      },
      "geometry": {
        "type": "Point",
        "coordinates": [
          89.35531741636484,
          9.76317089904423
        ]
      }
    },
    {
      "type": "Feature",
      "properties": {
        "norad_id": 33867,
        "name": "IRIDIUM 33 DEB",
        "group": "iridium-33-debris",
        "lat": -71.60386565583964,
        "lon": -26.303823307472264,
        "alt_km": 297.05181886735045,
        "timestamp": "2025-12-22T22:44:21.363355+00:00",
        "meta_object_name": "IRIDIUM 33 DEB",
        "meta_object_id": "1997-051AL",
        "meta_epoch": "2025-12-22T11:00:02.746368",
        "meta_mean_motion": 15.94011051,
        "meta_eccentricity": 0.0013656,
        "meta_inclination": 86.3662,
        "meta_ra_of_asc_node": 344.9772,
        "meta_arg_of_pericenter": 104.8485,
        "meta_mean_anomaly": 255.4311,
        "meta_ephemeris_type": 0,
        "meta_classification_type": "U",
        "meta_norad_cat_id": 33867,
        "meta_element_set_no": 999,
        "meta_rev_at_epoch": 89664,
        "meta_bstar": 0.0093592392,
        "meta_mean_motion_dot": 0.03057152,
        "meta_mean_motion_ddot": 0.0088726237,
        "tle_line1": "1 33867U 97051AL  25356.45836512  .03057152  88726-2  93592-2 0  9990",
        "tle_line2": "2 33867  86.3662 344.9772 0013656 104.8485 255.4311 15.94011051896648"
      },
      "geometry": {
        "type": "Point",
        "coordinates": [
          -26.303823307472264,
          -71.60386565583964
        ]
      }
    },
    {
      "type": "Feature",
      "properties": {
        "norad_id": 33870,
        "name": "IRIDIUM 33 DEB",
        "group": "iridium-33-debris",
        "lat": 34.65691968890897,
        "lon": -128.62735091645686,
        "alt_km": 720.9048796293255,
        "timestamp": "2025-12-22T22:44:21.363366+00:00",
        "meta_object_name": "IRIDIUM 33 DEB",
        "meta_object_id": "1997-051AP",
        "meta_epoch": "2025-12-22T14:22:05.127744",
        "meta_mean_motion": 14.45897764,
        "meta_eccentricity": 0.00224526,
        "meta_inclination": 86.3737,
        "meta_ra_of_asc_node": 54.0349,
        "meta_arg_of_pericenter": 146.7481,
        "meta_mean_anomaly": 344.003,
        "meta_ephemeris_type": 0,
        "meta_classification_type": "U",
        "meta_norad_cat_id": 33870,
        "meta_element_set_no": 999,
        "meta_rev_at_epoch": 88279,
        "meta_bstar": 0.00065993411,
        "meta_mean_motion_dot": 2.372e-05,
        "meta_mean_motion_ddot": 0,
        "tle_line1": "1 33870U 97051AP  25356.59867046  .00002372  00000+0  65993-3 0  9997",
        "tle_line2": "2 33870  86.3737  54.0349 0022452 146.7481 344.0030 14.45897764882791"
      },
      "geometry": {
        "type": "Point",
        "coordinates": [
          -128.62735091645686,
          34.65691968890897
        ]
      }
    },
    {
      "type": "Feature",
      "properties": {
        "norad_id": 33881,
        "name": "IRIDIUM 33 DEB",
        "group": "iridium-33-debris",
        "lat": 48.29565126666504,
        "lon": 106.37255841880261,
        "alt_km": 701.4948688547511,
        "timestamp": "2025-12-22T22:44:21.363377+00:00",
        "meta_object_name": "IRIDIUM 33 DEB",
        "meta_object_id": "1997-051BA",
        "meta_epoch": "2025-12-22T01:53:28.694112",
        "meta_mean_motion": 14.56726775,
        "meta_eccentricity": 0.00613657,
        "meta_inclination": 86.3868,
        "meta_ra_of_asc_node": 102.6839,
        "meta_arg_of_pericenter": 144.447,
        "meta_mean_anomaly": 32.1992,
        "meta_ephemeris_type": 0,
        "meta_classification_type": "U",
        "meta_norad_cat_id": 33881,
        "meta_element_set_no": 999,
        "meta_rev_at_epoch": 87636,
        "meta_bstar": 0.0020421303,
        "meta_mean_motion_dot": 9.388e-05,
        "meta_mean_motion_ddot": 0,
        "tle_line1": "1 33881U 97051BA  25356.07880433  .00009388  00000+0  20421-2 0  9997",
        "tle_line2": "2 33881  86.3868 102.6839 0061365 144.4470  32.1992 14.56726775876364"
      },
      "geometry": {
        "type": "Point",
        "coordinates": [
          106.37255841880261,
          48.29565126666504
        ]
      }
    },
    {
      "type": "Feature",
      "properties": {
        "norad_id": 33884,
        "name": "IRIDIUM 33 DEB",
        "group": "iridium-33-debris",
        "lat": 41.29723930886237,
        "lon": 8.407151400585885,
        "alt_km": 636.5964906079353,
        "timestamp": "2025-12-22T22:44:21.363387+00:00",
        "meta_object_name": "IRIDIUM 33 DEB",
        "meta_object_id": "1997-051BD",
        "meta_epoch": "2025-12-21T19:42:17.168256",
        "meta_mean_motion": 14.77591703,
        "meta_eccentricity": 0.00089767,
        "meta_inclination": 86.3691,
        "meta_ra_of_asc_node": 5.7181,
        "meta_arg_of_pericenter": 287.8241,
        "meta_mean_anomaly": 245.5748,
        "meta_ephemeris_type": 0,
        "meta_classification_type": "U",
        "meta_norad_cat_id": 33884,
        "meta_element_set_no": 999,
        "meta_rev_at_epoch": 88981,
        "meta_bstar": 0.0012315655,
        "meta_mean_motion_dot": 8.831e-05,
        "meta_mean_motion_ddot": 0,
        "tle_line1": "1 33884U 97051BD  25355.82103204  .00008831  00000+0  12316-2 0  9992",
        "tle_line2": "2 33884  86.3691   5.7181 0008976 287.8241 245.5748 14.77591703889818"
      },
      "geometry": {
        "type": "Point",
        "coordinates": [
          8.407151400585885,
          41.29723930886237
        ]
      }
    }
  ]
}